[Satellite]
VERSION=1.1
NAME=ARIANE 5 R/B
NICKNAME=ARIANE 5 R/B
TLE1=1 42742U 17029C   17177.69840447  .00001216  00000-0  53824-3 0  9998
TLE2=2 42742   6.1230  62.6998 7274187 199.2738 103.5227  2.27957713   562
